TROLL                   
1 62658U 25009BB  26068.22522958  .00013174  00000+0  48220-3 0  9994
2 62658  97.3932 150.7169 0001816  59.1850 300.9568 15.28164315118170
STARLINK-34120          
1 63898U 25095J   26068.75807320  .00041047  00000+0  14887-2 0  9994
2 63898  43.0014 175.3680 0001716 266.8554  93.2101 15.27671911 47804
